IRIDIUM 63              
1 25286U 98021B   25194.64848433  .00000262  00000+0  82473-4 0  9991
2 25286  86.3954  71.0293 0002105  91.0485 269.0953 14.36560503427647
IRIDIUM 69              
1 25319U 98026A   25194.44105126  .00000340  00000+0  99715-4 0  9990
2 25319  86.3956  84.3288 0001276   4.8900 355.2312 14.40987734426841
IRIDIUM 71              
1 25320U 98026B   25194.16672669  .00000261  00000+0  74624-4 0  9996
2 25320  86.3952  79.1302 0003158  43.7960 316.3489 14.41174353427331
IRIDIUM 73              
1 25344U 98032C   25194.53014687  .00000356  00000+0  83395-4 0  9990
2 25344  86.4395  35.6238 0001559  90.2218 269.9166 14.51735800434389
IRIDIUM 82              
1 25467U 98051A   25194.46835499  .00018082  00000+0  50393-3 0  9997
2 25467  86.3660  96.8069 0082556 194.5232 165.3647 15.33191730427980
